TISAT 1                 
1 36799U 10035E   26068.75703561  .00024554  00000+0  91005-3 0  9996
2 36799  98.0645   6.8512 0001343 159.3030 200.8262 15.27628633852505
STARLINK-32947          
1 63121U 25039T   26068.17335632  .00035426  00000+0  12927-2 0  9996
2 63121  43.0049  15.1957 0001372 260.7076  99.3620 15.27528698 57996
